{
  "type": "FeatureCollection",
  "features": [
    {
      "type": "Feature",
      "properties": {
        "norad_id": 38857,
        "name": "GSAT0103 (GALILEO-FM3)",
        "group": "gnss",
        "lat": 29.863055443171277,
        "lon": 129.80530555631495,
        "alt_km": 23223.26258848886,
        "timestamp": "2025-12-09T11:33:55.041262+00:00",
        "meta_object_name": "GSAT0103 (GALILEO-FM3)",
        "meta_object_id": "2012-055A",
        "meta_epoch": "2025-12-06T11:43:28.953984",
        "meta_mean_motion": 1.7047325,
        "meta_eccentricity": 0.00024686,
        "meta_inclination": 55.6879,
        "meta_ra_of_asc_node": 106.8382,
        "meta_arg_of_pericenter": 267.747,
        "meta_mean_anomaly": 92.1776,
        "meta_ephemeris_type": 0,
        "meta_classification_type": "U",
        "meta_norad_cat_id": 38857,
        "meta_element_set_no": 999,
        "meta_rev_at_epoch": 8172,
        "meta_bstar": 0,
        "meta_mean_motion_dot": 7e-08,
        "meta_mean_motion_ddot": 0,
        "tle_line1": "1 38857U 12055A   25340.48852956  .00000007  00000+0  00000+0 0  9990",
        "tle_line2": "2 38857  55.6879 106.8382 0002468 267.7470  92.1776  1.70473250 81723"
      },
      "geometry": {
        "type": "Point",
        "coordinates": [
          129.80530555631495,
          29.863055443171277
        ]
      }
    },
    {
      "type": "Feature",
      "properties": {
        "norad_id": 38953,
        "name": "BEIDOU-2 G6 (C02)",
        "group": "gnss",
        "lat": -3.8905576202679555,
        "lon": -24.081714797828212,
        "alt_km": 35759.602147410194,
        "timestamp": "2025-12-09T11:33:55.041274+00:00",
        "meta_object_name": "BEIDOU-2 G6 (C02)",
        "meta_object_id": "2012-059A",
        "meta_epoch": "2025-12-08T20:51:04.199040",
        "meta_mean_motion": 1.00269836,
        "meta_eccentricity": 0.00074931,
        "meta_inclination": 3.9388,
        "meta_ra_of_asc_node": 75.5346,
        "meta_arg_of_pericenter": 289.1403,
        "meta_mean_anomaly": 109.993,
        "meta_ephemeris_type": 0,
        "meta_classification_type": "U",
        "meta_norad_cat_id": 38953,
        "meta_element_set_no": 999,
        "meta_rev_at_epoch": 4800,
        "meta_bstar": 0,
        "meta_mean_motion_dot": -1.74e-06,
        "meta_mean_motion_ddot": 0,
        "tle_line1": "1 38953U 12059A   25342.86879860 -.00000174  00000+0  00000+0 0  9994",
        "tle_line2": "2 38953   3.9388  75.5346 0007493 289.1403 109.9930  1.00269836 48009"
      },
      "geometry": {
        "type": "Point",
        "coordinates": [
          -24.081714797828212,
          -3.8905576202679555
        ]
      }
    },
    {
      "type": "Feature",
      "properties": {
        "norad_id": 38977,
        "name": "LUCH 5B (SDCM/PRN 125)",
        "group": "gnss",
        "lat": -0.6888262665010986,
        "lon": -124.45558000415605,
        "alt_km": 35755.62221649968,
        "timestamp": "2025-12-09T11:33:55.041286+00:00",
        "meta_object_name": "LUCH 5B (SDCM/PRN 125)",
        "meta_object_id": "2012-061A",
        "meta_epoch": "2025-12-08T10:06:12.360096",
        "meta_mean_motion": 1.00272234,
        "meta_eccentricity": 0.00072728,
        "meta_inclination": 10.0716,
        "meta_ra_of_asc_node": 51.747,
        "meta_arg_of_pericenter": 191.5954,
        "meta_mean_anomaly": 329.292,
        "meta_ephemeris_type": 0,
        "meta_classification_type": "U",
        "meta_norad_cat_id": 38977,
        "meta_element_set_no": 999,
        "meta_rev_at_epoch": 4769,
        "meta_bstar": 0,
        "meta_mean_motion_dot": -1.39e-06,
        "meta_mean_motion_ddot": 0,
        "tle_line1": "1 38977U 12061A   25342.42097639 -.00000139  00000+0  00000+0 0  9992",
        "tle_line2": "2 38977  10.0716  51.7470 0007272 191.5954 329.2920  1.00272234 47691"
      },
      "geometry": {
        "type": "Point",
        "coordinates": [
          -124.45558000415605,
          -0.6888262665010986
        ]
      }
    },
    {
      "type": "Feature",
      "properties": {
        "norad_id": 39155,
        "name": "COSMOS 2485 (747)",
        "group": "gnss",
        "lat": 54.399027124168036,
        "lon": -139.9206373327866,
        "alt_km": 19147.577527820344,
        "timestamp": "2025-12-09T11:33:55.041297+00:00",
        "meta_object_name": "COSMOS 2485 (747)",
        "meta_object_id": "2013-019A",
        "meta_epoch": "2025-12-08T20:38:39.480288",
        "meta_mean_motion": 2.13102846,
        "meta_eccentricity": 0.00245424,
        "meta_inclination": 65.3114,
        "meta_ra_of_asc_node": 79.9979,
        "meta_arg_of_pericenter": 229.0903,
        "meta_mean_anomaly": 130.7128,
        "meta_ephemeris_type": 0,
        "meta_classification_type": "U",
        "meta_norad_cat_id": 39155,
        "meta_element_set_no": 999,
        "meta_rev_at_epoch": 9822,
        "meta_bstar": 0,
        "meta_mean_motion_dot": -1.1e-07,
        "meta_mean_motion_ddot": 0,
        "tle_line1": "1 39155U 13019A   25342.86017917 -.00000011  00000+0  00000+0 0  9993",
        "tle_line2": "2 39155  65.3114  79.9979 0024542 229.0903 130.7128  2.13102846 98227"
      },
      "geometry": {
        "type": "Point",
        "coordinates": [
          -139.9206373327866,
          54.399027124168036
        ]
      }
    },
    {
      "type": "Feature",
      "properties": {
        "norad_id": 39166,
        "name": "GPS BIIF-4  (PRN 27)",
        "group": "gnss",
        "lat": -6.237764805950148,
        "lon": 101.13068587268091,
        "alt_km": 20456.797689608597,
        "timestamp": "2025-12-09T11:33:55.041309+00:00",
        "meta_object_name": "GPS BIIF-4  (PRN 27)",
        "meta_object_id": "2013-023A",
        "meta_epoch": "2025-12-08T05:28:17.877216",
        "meta_mean_motion": 2.00565078,
        "meta_eccentricity": 0.01376231,
        "meta_inclination": 54.656,
        "meta_ra_of_asc_node": 276.7517,
        "meta_arg_of_pericenter": 48.5653,
        "meta_mean_anomaly": 312.6225,
        "meta_ephemeris_type": 0,
        "meta_classification_type": "U",
        "meta_norad_cat_id": 39166,
        "meta_element_set_no": 999,
        "meta_rev_at_epoch": 9205,
        "meta_bstar": 0,
        "meta_mean_motion_dot": -4.1e-07,
        "meta_mean_motion_ddot": 0,
        "tle_line1": "1 39166U 13023A   25342.22798469 -.00000041  00000+0  00000+0 0  9991",
        "tle_line2": "2 39166  54.6560 276.7517 0137623  48.5653 312.6225  2.00565078 92051"
      },
      "geometry": {
        "type": "Point",
        "coordinates": [
          101.13068587268091,
          -6.237764805950148
        ]
      }
    },
    {
      "type": "Feature",
      "properties": {
        "norad_id": 39199,
        "name": "IRNSS-1A",
        "group": "gnss",
        "lat": -30.34805993199007,
        "lon": -57.698447865702775,
        "alt_km": 35735.164260637284,
        "timestamp": "2025-12-09T11:33:55.041320+00:00",
        "meta_object_name": "IRNSS-1A",
        "meta_object_id": "2013-034A",
        "meta_epoch": "2025-12-02T19:49:26.431104",
        "meta_mean_motion": 1.00279053,
        "meta_eccentricity": 0.00216608,
        "meta_inclination": 35.2852,
        "meta_ra_of_asc_node": 66.6964,
        "meta_arg_of_pericenter": 185.4059,
        "meta_mean_anomaly": 172.3398,
        "meta_ephemeris_type": 0,
        "meta_classification_type": "U",
        "meta_norad_cat_id": 39199,
        "meta_element_set_no": 999,
        "meta_rev_at_epoch": 4539,
        "meta_bstar": 0,
        "meta_mean_motion_dot": 6.5e-07,
        "meta_mean_motion_ddot": 0,
        "tle_line1": "1 39199U 13034A   25336.82600036  .00000065  00000+0  00000+0 0  9995",
        "tle_line2": "2 39199  35.2852  66.6964 0021660 185.4059 172.3398  1.00279053 45393"
      },
      "geometry": {
        "type": "Point",
        "coordinates": [
          -57.698447865702775,
          -30.34805993199007
        ]
      }
    },
    {
      "type": "Feature",
      "properties": {
        "norad_id": 39533,
        "name": "GPS BIIF-5  (PRN 30)",
        "group": "gnss",
        "lat": -6.7865578412751315,
        "lon": -17.916923869701986,
        "alt_km": 20016.419563292373,
        "timestamp": "2025-12-09T11:33:55.041351+00:00",
        "meta_object_name": "GPS BIIF-5  (PRN 30)",
        "meta_object_id": "2014-008A",
        "meta_epoch": "2025-12-08T17:17:53.714976",
        "meta_mean_motion": 2.00574163,
        "meta_eccentricity": 0.0079112,
        "meta_inclination": 53.6309,
        "meta_ra_of_asc_node": 157.0886,
        "meta_arg_of_pericenter": 226.4438,
        "meta_mean_anomaly": 132.9028,
        "meta_ephemeris_type": 0,
        "meta_classification_type": "U",
        "meta_norad_cat_id": 39533,
        "meta_element_set_no": 999,
        "meta_rev_at_epoch": 8586,
        "meta_bstar": 0,
        "meta_mean_motion_dot": 5.9e-07,
        "meta_mean_motion_ddot": 0,
        "tle_line1": "1 39533U 14008A   25342.72076059  .00000059  00000+0  00000+0 0  9990",
        "tle_line2": "2 39533  53.6309 157.0886 0079112 226.4438 132.9028  2.00574163 85865"
      },
      "geometry": {
        "type": "Point",
        "coordinates": [
          -17.916923869701986,
          -6.7865578412751315
        ]
      }
    }
  ]
}